STARLINK-2022           
1 47643U 21012Z   24244.09707009 -.00000875  00000+0 -39850-4 0  9998
2 47643  53.0575  25.7712 0002420 102.6780 257.4480 15.06390390196526
